[{"OBJECT_NAME":"NANOSAT 1B","OBJECT_ID":"2009-041E","EPOCH":"2026-03-09T21:25:14.277504","MEAN_MOTION":14.92717139,"ECCENTRICITY":0.00507083,"INCLINATION":98.1028,"RA_OF_ASC_NODE":184.556,"ARG_OF_PERICENTER":130.665,"MEAN_ANOMALY":229.8993,"EPHEMERIS_TYPE":0,"CLASSIFICATION_TYPE":"U","NORAD_CAT_ID":35685,"ELEMENT_SET_NO":999,"REV_AT_EPOCH":89960,"BSTAR":0.0002341259,"MEAN_MOTION_DOT":2.414e-5,"MEAN_MOTION_DDOT":0},{"OBJECT_NAME":"STARLINK-4571","OBJECT_ID":"2022-105AS","EPOCH":"2026-03-09T15:39:25.722720","MEAN_MOTION":15.01261297,"ECCENTRICITY":0.0001573,"INCLINATION":97.6023,"RA_OF_ASC_NODE":310.1668,"ARG_OF_PERICENTER":117.2615,"MEAN_ANOMALY":242.877,"EPHEMERIS_TYPE":0,"CLASSIFICATION_TYPE":"U","NORAD_CAT_ID":53688,"ELEMENT_SET_NO":999,"REV_AT_EPOCH":19323,"BSTAR":-5.541e-5,"MEAN_MOTION_DOT":-7.7e-6,"MEAN_MOTION_DDOT":0}]
